{"fetched_at":"2026-07-16T06:43:19.197Z","source":"https://celestrak.org/NORAD/elements/gp.php?NAME=SPACEMOBILE&FORMAT=JSON","constellation":"ast-spacemobile","records":[{"OBJECT_NAME":"SPACEMOBILE-003","OBJECT_ID":"2024-163A","EPOCH":"2026-07-15T22:28:15.361824","CLASSIFICATION_TYPE":"U","MEAN_MOTION":15.20707343,"ECCENTRICITY":0.00047091,"INCLINATION":52.9668,"RA_OF_ASC_NODE":177.2357,"ARG_OF_PERICENTER":195.9997,"MEAN_ANOMALY":164.0849,"EPHEMERIS_TYPE":0,"NORAD_CAT_ID":61045,"ELEMENT_SET_NO":999,"REV_AT_EPOCH":10214,"BSTAR":0.000062950215,"MEAN_MOTION_DOT":0.00001075,"MEAN_MOTION_DDOT":0},{"OBJECT_NAME":"SPACEMOBILE-005","OBJECT_ID":"2024-163B","EPOCH":"2026-07-15T09:27:17.935776","CLASSIFICATION_TYPE":"U","MEAN_MOTION":15.20721288,"ECCENTRICITY":0.00087039,"INCLINATION":52.9762,"RA_OF_ASC_NODE":179.6783,"ARG_OF_PERICENTER":196.2999,"MEAN_ANOMALY":163.7716,"EPHEMERIS_TYPE":0,"NORAD_CAT_ID":61046,"ELEMENT_SET_NO":999,"REV_AT_EPOCH":10205,"BSTAR":0.00011604448,"MEAN_MOTION_DOT":0.00002259,"MEAN_MOTION_DDOT":0},{"OBJECT_NAME":"SPACEMOBILE-001","OBJECT_ID":"2024-163C","EPOCH":"2026-07-15T09:24:54.883296","CLASSIFICATION_TYPE":"U","MEAN_MOTION":15.20741724,"ECCENTRICITY":0.00072054,"INCLINATION":52.9733,"RA_OF_ASC_NODE":179.3964,"ARG_OF_PERICENTER":194.1158,"MEAN_ANOMALY":165.9636,"EPHEMERIS_TYPE":0,"NORAD_CAT_ID":61047,"ELEMENT_SET_NO":999,"REV_AT_EPOCH":10205,"BSTAR":0.000027081573,"MEAN_MOTION_DOT":0.00000276,"MEAN_MOTION_DDOT":0},{"OBJECT_NAME":"SPACEMOBILE-002","OBJECT_ID":"2024-163D","EPOCH":"2026-07-15T09:01:40.700928","CLASSIFICATION_TYPE":"U","MEAN_MOTION":15.20785739,"ECCENTRICITY":0.00060257,"INCLINATION":52.9778,"RA_OF_ASC_NODE":179.5102,"ARG_OF_PERICENTER":192.7695,"MEAN_ANOMALY":167.3147,"EPHEMERIS_TYPE":0,"NORAD_CAT_ID":61048,"ELEMENT_SET_NO":999,"REV_AT_EPOCH":10205,"BSTAR":0.00017897689,"MEAN_MOTION_DOT":0.0000367,"MEAN_MOTION_DDOT":0},{"OBJECT_NAME":"SPACEMOBILE-004","OBJECT_ID":"2024-163E","EPOCH":"2026-07-15T14:55:07.061664","CLASSIFICATION_TYPE":"U","MEAN_MOTION":15.20780797,"ECCENTRICITY":0.00065792,"INCLINATION":52.9675,"RA_OF_ASC_NODE":178.1586,"ARG_OF_PERICENTER":225.4338,"MEAN_ANOMALY":134.612,"EPHEMERIS_TYPE":0,"NORAD_CAT_ID":61049,"ELEMENT_SET_NO":999,"REV_AT_EPOCH":10209,"BSTAR":0.00055840965,"MEAN_MOTION_DOT":0.0001216,"MEAN_MOTION_DDOT":0},{"OBJECT_NAME":"SPACEMOBILE-001 DEB","OBJECT_ID":"2024-163F","EPOCH":"2026-07-15T21:28:58.314432","CLASSIFICATION_TYPE":"U","MEAN_MOTION":15.35394916,"ECCENTRICITY":0.00057113,"INCLINATION":52.9934,"RA_OF_ASC_NODE":144.2344,"ARG_OF_PERICENTER":255.8222,"MEAN_ANOMALY":104.2145,"EPHEMERIS_TYPE":0,"NORAD_CAT_ID":62369,"ELEMENT_SET_NO":999,"REV_AT_EPOCH":9091,"BSTAR":0.00013849131,"MEAN_MOTION_DOT":0.00004452,"MEAN_MOTION_DDOT":0},{"OBJECT_NAME":"SPACEMOBILE-002 DEB","OBJECT_ID":"2024-163G","EPOCH":"2026-07-15T22:23:38.185440","CLASSIFICATION_TYPE":"U","MEAN_MOTION":15.43840177,"ECCENTRICITY":0.00046106,"INCLINATION":52.9426,"RA_OF_ASC_NODE":128.1302,"ARG_OF_PERICENTER":289.1997,"MEAN_ANOMALY":70.8508,"EPHEMERIS_TYPE":0,"NORAD_CAT_ID":62370,"ELEMENT_SET_NO":999,"REV_AT_EPOCH":10280,"BSTAR":0.00026503896,"MEAN_MOTION_DOT":0.00011807,"MEAN_MOTION_DDOT":0},{"OBJECT_NAME":"SPACEMOBILE-003 DEB","OBJECT_ID":"2024-163H","EPOCH":"2026-07-15T20:07:16.845888","CLASSIFICATION_TYPE":"U","MEAN_MOTION":15.41581006,"ECCENTRICITY":0.00054654,"INCLINATION":52.9701,"RA_OF_ASC_NODE":135.4961,"ARG_OF_PERICENTER":239.0673,"MEAN_ANOMALY":120.9793,"EPHEMERIS_TYPE":0,"NORAD_CAT_ID":62371,"ELEMENT_SET_NO":999,"REV_AT_EPOCH":9630,"BSTAR":0.00030399545,"MEAN_MOTION_DOT":0.00012593,"MEAN_MOTION_DDOT":0},{"OBJECT_NAME":"SPACEMOBILE-004 DEB","OBJECT_ID":"2024-163J","EPOCH":"2026-07-15T20:34:31.752480","CLASSIFICATION_TYPE":"U","MEAN_MOTION":15.40775021,"ECCENTRICITY":0.00027107,"INCLINATION":52.9842,"RA_OF_ASC_NODE":135.0653,"ARG_OF_PERICENTER":267.5109,"MEAN_ANOMALY":92.5584,"EPHEMERIS_TYPE":0,"NORAD_CAT_ID":62372,"ELEMENT_SET_NO":999,"REV_AT_EPOCH":9937,"BSTAR":0.00021093678,"MEAN_MOTION_DOT":0.00008371,"MEAN_MOTION_DDOT":0},{"OBJECT_NAME":"SPACEMOBILE-005 DEB","OBJECT_ID":"2024-163K","EPOCH":"2026-07-15T22:01:29.324064","CLASSIFICATION_TYPE":"U","MEAN_MOTION":15.34667242,"ECCENTRICITY":0.00054858,"INCLINATION":52.9744,"RA_OF_ASC_NODE":149.0299,"ARG_OF_PERICENTER":232.7512,"MEAN_ANOMALY":127.2988,"EPHEMERIS_TYPE":0,"NORAD_CAT_ID":62373,"ELEMENT_SET_NO":999,"REV_AT_EPOCH":10253,"BSTAR":0.00015634582,"MEAN_MOTION_DOT":0.00004953,"MEAN_MOTION_DDOT":0},{"OBJECT_NAME":"SPACEMOBILE-006","OBJECT_ID":"2025-309A","EPOCH":"2026-07-15T08:13:11.161056","CLASSIFICATION_TYPE":"U","MEAN_MOTION":15.18653983,"ECCENTRICITY":0.00100574,"INCLINATION":52.9937,"RA_OF_ASC_NODE":202.6601,"ARG_OF_PERICENTER":215.7672,"MEAN_ANOMALY":144.2649,"EPHEMERIS_TYPE":0,"NORAD_CAT_ID":67232,"ELEMENT_SET_NO":999,"REV_AT_EPOCH":3087,"BSTAR":0.000048788741,"MEAN_MOTION_DOT":0.00000702,"MEAN_MOTION_DDOT":0},{"OBJECT_NAME":"SPACEMOBILE-008","OBJECT_ID":"2026-139A","EPOCH":"2026-07-15T05:15:12.949632","CLASSIFICATION_TYPE":"U","MEAN_MOTION":15.12801985,"ECCENTRICITY":0.00050681,"INCLINATION":52.9948,"RA_OF_ASC_NODE":135.2997,"ARG_OF_PERICENTER":56.5691,"MEAN_ANOMALY":303.5784,"EPHEMERIS_TYPE":0,"NORAD_CAT_ID":69589,"ELEMENT_SET_NO":999,"REV_AT_EPOCH":422,"BSTAR":0.000016690427,"MEAN_MOTION_DOT":-5e-8,"MEAN_MOTION_DDOT":0},{"OBJECT_NAME":"SPACEMOBILE-009","OBJECT_ID":"2026-139B","EPOCH":"2026-07-15T05:18:02.660832","CLASSIFICATION_TYPE":"U","MEAN_MOTION":15.12695316,"ECCENTRICITY":0.00053104,"INCLINATION":52.9939,"RA_OF_ASC_NODE":135.3065,"ARG_OF_PERICENTER":52.3964,"MEAN_ANOMALY":307.7508,"EPHEMERIS_TYPE":0,"NORAD_CAT_ID":69590,"ELEMENT_SET_NO":999,"REV_AT_EPOCH":422,"BSTAR":0.000019438968,"MEAN_MOTION_DOT":4.3e-7,"MEAN_MOTION_DDOT":0},{"OBJECT_NAME":"SPACEMOBILE-010","OBJECT_ID":"2026-139C","EPOCH":"2026-07-15T05:22:31.861632","CLASSIFICATION_TYPE":"U","MEAN_MOTION":15.12527718,"ECCENTRICITY":0.0005239,"INCLINATION":52.9945,"RA_OF_ASC_NODE":135.3285,"ARG_OF_PERICENTER":44.4295,"MEAN_ANOMALY":315.7116,"EPHEMERIS_TYPE":0,"NORAD_CAT_ID":69591,"ELEMENT_SET_NO":999,"REV_AT_EPOCH":423,"BSTAR":0.000028987384,"MEAN_MOTION_DOT":0.0000021,"MEAN_MOTION_DDOT":0}]}
